EQUISAT                 
1 43552U 98067PA  20311.36685492  .00121800  00000-0  44158-3 0  9996
2 43552  51.6281 274.2876 0001672  71.1820 288.9366 15.87683094132633
AEROCUBE 12A            
1 43556U 18046C   20310.91295883  .00001688  00000-0  68988-4 0  9999
2 43556  51.6391 145.6491 0008865  84.4098 275.7893 15.30295212129036
AEROCUBE 12B            
1 43557U 18046D   20310.80632099  .00001357  00000-0  58450-4 0  9998
2 43557  51.6401 147.1692 0008865  82.6252 277.5736 15.29948726128950
UITMSAT-1               
1 43589U 98067PD  20311.32049674  .00412963  87533-4  65319-3 0  9993
2 43589  51.6271 266.1765 0004121 112.0595 248.0854 16.03241032128472
MAYA-1                  
1 43590U 98067PE  20311.12486323  .00390575  79005-4  62530-3 0  9990
2 43590  51.6216 267.0362 0004164 114.0905 246.0542 16.03044067128370
BHUTAN-1                
1 43591U 98067PF  20311.31757560  .00449616  10418-3  65669-3 0  9995
2 43591  51.6268 265.4915 0004225 117.5916 242.5525 16.04552519128416
SIRIUSSAT-1             
1 43595U 98067PG  20311.60927904  .00072869  13146-4  23108-3 0  9998
2 43595  51.6250 274.1229 0007906 132.9914 227.4738 15.91350887127500
SIRIUSSAT-2             
1 43596U 98067PH  20311.49129060  .00138253  18212-4  43069-3 0  9990
2 43596  51.6259 275.6724 0005890 100.8838 259.3202 15.91296437127471
SURFSAT                 
1 43614U 18070B   20311.43097118  .00004134  00000-0  10343-3 0  9990
2 43614  93.0289 213.3908 0016583 139.2795 220.9703 15.40005785120322
CP7 (DAVE)              
1 43615U 18070C   20311.28257706  .00003848  00000-0  96893-4 0  9991
2 43615  93.0291 213.3101 0016724 139.6090 220.6410 15.39813049120296
ELFIN-B                 
1 43616U 18070D   20311.37930495  .00006131  00000-0  14564-3 0  9997
2 43616  93.0250 213.3480 0016967 139.4964 220.7558 15.41551308120372
ELFIN-A                 
1 43617U 18070E   20311.45721243  .00006371  00000-0  15006-3 0  9994
2 43617  93.0306 214.0147 0016531 135.8771 224.3806 15.41811864120390
CUBEBEL-1 (BSUSAT-1)    
1 43666U 18083E   20311.38759902  .00001536  00000-0  77572-4 0  9992
2 43666  97.4787 336.3960 0013612 221.2472 235.6839 15.18546216112157
CICERO 10               
1 43690U 18088A   20311.33312536  .00001468  00000-0  65203-4 0  9999
2 43690  85.0375 344.8290 0016222 142.6685 217.5687 15.20487764110290
IRVINE01                
1 43693U 18088D   20310.54323395  .00002949  00000-0  12114-3 0  9996
2 43693  85.0345 343.5837 0019498 127.3078 232.9945 15.23553807110324
PROXIMA I               
1 43694U 18088E   20311.16253049  .00001252  00000-0  52372-4 0  9991
2 43694  85.0316 343.1159 0021160 119.0286 241.3080 15.22230502110398
PROXIMA II              
1 43696U 18088G   20310.83195081  .00001194  00000-0  49865-4 0  9995
2 43696  85.0317 343.3399 0021187 120.0847 240.2499 15.22229310110345
FACSAT-1                
1 43721U 18096C   20311.46217135  .00002307  00000-0  87799-4 0  9993
2 43721  97.4088  24.2048 0016952 346.5053 141.2337 15.27655501108067
CENTAURI-2              
1 43722U 18096D   20310.62462929  .00002698  00000-0  10021-3 0  9990
2 43722  97.4102  23.7997 0016805 348.4400  11.6451 15.28322500107951
INNOSAT-2               
1 43738U 18096V   20311.46029025  .00004245  00000-0  14272-3 0  9998
2 43738  97.4136  27.2217 0022367 348.8758  66.0630 15.31139053108259
SIRION PATHFINDER-2     
1 43759U 18099B   20310.77400063 -.00000009  00000-0  43812-5 0  9991
2 43759  97.6923  19.9246 0015817  72.9745 287.3181 14.95346317105057
CORVUS-BC 4             
1 43767U 18099K   20311.37016816  .00000626  00000-0  62688-4 0  9991
2 43767  97.6898  19.7632 0013433  75.8728 284.3969 14.94790557105104
MOVE-II                 
1 43780U 18099Y   20311.44131670  .00000357  00000-0  37277-4 0  9997
2 43780  97.6937  20.5640 0014874  81.7234 278.5673 14.95550557105135
SPACEBEE-7              
1 43816U 18099BL  20311.15316561  .00000990  00000-0  93702-4 0  9997
2 43816  97.6950  20.7574 0014788  68.8062 291.4738 14.95818192104673
SPACEBEE-5              
1 43817U 18099BM  20311.44298782  .00001042  00000-0  96444-4 0  9999
2 43817  97.7016  21.7405 0014249  67.2797 292.9929 14.96598125104740
SPACEBEE-6              
1 43818U 18099BN  20311.16341955  .00000968  00000-0  91153-4 0  9998
2 43818  97.6971  20.9831 0014702  68.3421 291.9365 14.96059698104834
SHIELDS 1               
1 43850U 18104B   20310.87353393  .00000848  00000-0  35852-4 0  9998
2 43850  85.0287  81.8431 0012616 270.8828  89.0968 15.21518853104978
STF-1                   
1 43852U 18104D   20311.08678251  .00001807  00000-0  78283-4 0  9998
2 43852  85.0326  82.3261 0012441 287.0541  72.9337 15.21588286104988
ZACUBE-2                
1 43907U 18111AH  20311.50007149  .00000869  00000-0  37675-4 0  9993
2 43907  97.2502 206.8645 0021844   6.5819 118.5604 15.24756697103651
LUME 1                  
1 43908U 18111AJ  20310.69790702  .00001751  00000-0  71837-4 0  9996
2 43908  97.2506 206.3685 0021407   8.6219 351.5383 15.25348336103557
AOBA VELOX-IV           
1 43940U 19003J   20310.62736971  .00002440  00000-0  98100-4 0  9992
2 43940  97.2111 356.9718 0025219  84.4932 275.9183 15.25550746100164
CATSAT-2                
1 44029U 98067PV  20311.27129100  .00041631  00000-0  32002-3 0  9993
2 44029  51.6382 314.5459 0001908 324.0484  36.0386 15.71598906100772
DELPHINI                
1 44030U 98067PW  20311.10188701  .00047874  00000-0  33647-3 0  9990
2 44030  51.6317 312.4605 0001481 342.3976  17.6971 15.73649734100758
UNITE                   
1 44031U 98067PX  20311.34498814  .00018678  00000-0  19468-3 0  9991
2 44031  51.6381 325.5135 0001313 275.0439  85.0407 15.64582105100608
CATSAT-1                
1 44033U 98067PZ  20311.14402962  .00041178  00000-0  31640-3 0  9997
2 44033  51.6383 315.2058 0002043 313.8242  46.2587 15.71614326100669
RAAVANA-1               
1 44329U 98067QE  20311.46934737  .00019432  00000-0  22875-3 0  9998
2 44329  51.6392 340.6811 0004205 161.4603 198.6545 15.61411145 79165
UGUISU                  
1 44330U 98067QF  20311.36317113  .00019552  00000-0  23128-3 0  9997
2 44330  51.6369 341.4335 0004179 160.3403 199.7753 15.61280244 79120
NEPALISAT-1             
1 44331U 98067QG  20311.14046555  .00018209  00000-0  21479-3 0  9998
2 44331  51.6370 342.1985 0004124 163.3754 196.7375 15.61407503 79108
SPOOQY-1                
1 44332U 98067QH  20311.09143575  .00018365  00000-0  21820-3 0  9996
2 44332  51.6377 342.6317 0003302 164.3720 195.7376 15.61215264 79056
SPACEBEE-9              
1 44370U 19037F   20311.37639146  .00016035  00000-0  32585-3 0  9995
2 44370  45.0067  40.9326 0014442 305.2577  54.6962 15.46096936 76543
SPACEBEE-8              
1 44371U 19037G   20310.95684642  .00036185  00000-0  55923-3 0  9999
2 44371  45.0067  31.0567 0013145 319.3132  40.6778 15.53433341 76604
IOD-1 GEMS              
1 44385U 98067QK  20311.09202391  .00041509  00000-0  39436-3 0  9994
2 44385  51.6387 337.4526 0002735  80.9768 279.1538 15.66439151 76639
MOVE-IIB                
1 44398U 19038N   20310.93396051  .00002526  00000-0  14702-3 0  9993
2 44398  97.5527 270.5156 0025496   4.0843 356.0589 15.12691082 73962
SONATE                  
1 44400U 19038Q   20311.53973009  .00001187  00000-0  72280-4 0  9996
2 44400  97.5565 271.1138 0025313   1.0604 359.0674 15.12118087 74042
LUCKY-7                 
1 44406U 19038W   20310.86769450  .00001060  00000-0  64444-4 0  9993
2 44406  97.5585 270.6026 0024675   2.7902 357.3462 15.12412333 73944
BEESAT 9                
1 44412U 19038AC  20311.45186260  .00001640  00000-0  97326-4 0  9997
2 44412  97.5574 271.1663 0022875   6.8490 353.3049 15.12558245 73736
JAISAT-1                
1 44419U 19038F   20310.63316848  .00001566  00000-0  91927-4 0  9998
2 44419  97.5574 270.7275 0021734   8.6868 351.4735 15.13039540 73946
SWIATOWID               
1 44426U 98067QL  20311.52207488  .00044198  00000-0  38441-3 0  9992
2 44426  51.6404 333.1942 0003339  76.3236  83.0164 15.68588377 76746
KRAKSAT                 
1 44427U 98067QM  20311.52890564  .00012078  00000-0  16173-3 0  9996
2 44427  51.6429 346.0671 0003662 109.7821  40.3799 15.58439664 76615
VCC A                   
1 44428U 98067QN  20310.37368691  .00014905  00000-0  18299-3 0  9992
2 44428  51.6399 348.4148 0002217 108.2993 251.8242 15.60536387 76486
ENTRYSAT                
1 44429U 98067QP  20311.12122842  .00023731  00000-0  26773-3 0  9996
2 44429  51.6380 342.1067 0002274  92.7893 267.3361 15.62381108 76639
VCC C                   
1 44430U 98067QQ  20311.45983934  .00031549  00000-0  32154-3 0  9997
2 44430  51.6374 337.6222 0001777  84.6416 275.4782 15.64813282 75545
VCC B                   
1 44431U 98067QR  20311.39229240  .00018660  00000-0  22622-3 0  9992
2 44431  51.6382 343.1836 0002335 112.1493 247.9748 15.60676084 76585
DUCHIFAT-3              
1 44854U 19089C   20311.43187200  .00000583  00000-0  53382-4 0  9995
2 44854  36.9678 339.2265 0007094 131.2226 228.9129 14.99183485 49618
EYESAT-NANO             
1 44877U 19092E   20310.56804167  .00001683  00000-0  88173-4 0  9993
2 44877  97.4564 131.5840 0012203 246.4126 113.5827 15.17120941 48989
ORBITAL FACTORY 2 (OF-2)
1 45113U 19071C   20311.47545856  .00002857  00000-0  96841-4 0  9997
2 45113  51.6436  37.2176 0012497 207.2375 152.7953 15.33974016 42924
M2 PATHFINDER           
1 45727U 20037E   20311.05510078  .00000781  00000-0  83958-4 0  9993
2 45727  97.7026 127.8877 0013323 184.5072 175.6076 14.91251372 19127
NETSAT-4                
1 46504U 20068U   20310.79013575 -.00000328  00000-0 -20517-4 0  9992
2 46504  97.6655 243.8372 0012114 122.2607 237.9795 15.01832096  5661
NETSAT-3                
1 46505U 20068V   20310.79108047 -.00000313  00000-0 -19413-4 0  9999
2 46505  97.6654 243.8337 0012135 122.6003 237.6394 15.01795420  5671
